ICEYE-X40               
1 60549U 24149CK  26196.15704842  .00001435  00000+0  12621-3 0  9996
2 60549  97.6795 272.2031 0003997   6.4770 353.6503 14.98070105104261
ICEYE-X49               
1 62384U 24247H   26196.75051764  .00001785  00000+0  11212-3 0  9991
2 62384  44.9961 204.8204 0001177 234.5476 125.5292 15.13515356 86505
ICEYE-X47               
1 62389U 24247N   26196.46240217  .00001034  00000+0  70924-4 0  9990
2 62389  44.9961 205.9543 0001376 350.9145   9.1707 15.13485709 86466
ICEYE-X42               
1 62698U 25009CT  26197.18226933  .00000899  00000+0  94548-4 0  9995
2 62698  97.7390 274.9743 0001282  97.5007 262.6358 14.91855994 81618
ICEYE-X41               
1 62700U 25009CV  26197.21629956  .00001491  00000+0  13491-3 0  9991
2 62700  97.7059 276.3218 0000241 262.0461  98.0733 14.96915512 81755
ICEYE-X45               
1 62705U 25009DA  26197.19797822  .00004568  00000+0  36412-3 0  9997
2 62705  97.8423 284.1255 0001075  54.7378 305.3946 15.00841363 82033
ICEYE-X44               
1 62707U 25009DC  26197.17909307  .00001645  00000+0  15109-3 0  9993
2 62707  97.7059 275.8476 0002478  70.0006 290.1482 14.96170749104272
ICEYE-X48               
1 63253U 25052AV  26197.17888184  .00001801  00000+0  15690-3 0  9996
2 63253  97.6838  88.9209 0004063 101.8187 258.3491 14.98129294 73019
ICEYE-X50               
1 63255U 25052AX  26197.26655988  .00000580  00000+0  57701-4 0  9995
2 63255  97.6856  88.5995 0003450  99.2098 260.9513 14.95366927 72992
ICEYE-X51               
1 63257U 25052AZ  26197.19219368  .00002168  00000+0  17516-3 0  9990
2 63257  97.7611  92.2365 0002044  68.3191 291.8250 15.00873829 73157
ICEYE-X46               
1 63258U 25052BA  26197.19636950  .00000841  00000+0  81314-4 0  9995
2 63258  97.6858  88.5297 0001699  81.1807 278.9607 14.95369095 72984
ICEYE-X54               
1 64570U 25135AU  26197.28030022  .00001402  00000+0  13437-3 0  9997
2 64570  97.7747 311.4259 0002121 177.5142 182.6089 14.94735357 58244
ICEYE-X52               
1 64572U 25135AW  26197.27894292  .00000923  00000+0  92715-4 0  9999
2 64572  97.7769 311.2124 0001326 183.7795 176.3415 14.93654779 58226
ICEYE-X56               
1 64574U 25135AY  26197.26698425  .00001960  00000+0  18101-3 0  9998
2 64574  97.7768 312.0027 0001465 185.2151 174.9055 14.95766130 58271
ICEYE-X57               
1 64578U 25135BC  26197.26803179  .00002383  00000+0  19213-3 0  9991
2 64578  97.8025 313.8271 0002124  57.4568 302.6860 15.00866053 58385
ICEYE-X55               
1 64581U 25135BF  26197.27472928  .00001831  00000+0  17120-3 0  9992
2 64581  97.7768 311.8354 0001918 228.1797 131.9260 14.95366365 58261
