{"fetched_at":"2026-07-16T17:46:41.220Z","source":"https://celestrak.org/NORAD/elements/gp.php?NAME=ICEYE&FORMAT=JSON","constellation":"iceye","records":[{"OBJECT_NAME":"ICEYE-X40","OBJECT_ID":"2024-149CK","EPOCH":"2026-07-15T03:46:08.983488","CLASSIFICATION_TYPE":"U","MEAN_MOTION":14.98070105,"ECCENTRICITY":0.00039977,"INCLINATION":97.6795,"RA_OF_ASC_NODE":272.2031,"ARG_OF_PERICENTER":6.477,"MEAN_ANOMALY":353.6503,"EPHEMERIS_TYPE":0,"NORAD_CAT_ID":60549,"ELEMENT_SET_NO":999,"REV_AT_EPOCH":10426,"BSTAR":0.00012620525,"MEAN_MOTION_DOT":0.00001435,"MEAN_MOTION_DDOT":0},{"OBJECT_NAME":"ICEYE-X49","OBJECT_ID":"2024-247H","EPOCH":"2026-07-15T18:00:44.724096","CLASSIFICATION_TYPE":"U","MEAN_MOTION":15.13515356,"ECCENTRICITY":0.0001177,"INCLINATION":44.9961,"RA_OF_ASC_NODE":204.8204,"ARG_OF_PERICENTER":234.5476,"MEAN_ANOMALY":125.5292,"EPHEMERIS_TYPE":0,"NORAD_CAT_ID":62384,"ELEMENT_SET_NO":999,"REV_AT_EPOCH":8650,"BSTAR":0.00011212,"MEAN_MOTION_DOT":0.00001785,"MEAN_MOTION_DDOT":0},{"OBJECT_NAME":"ICEYE-X47","OBJECT_ID":"2024-247N","EPOCH":"2026-07-15T11:05:51.547488","CLASSIFICATION_TYPE":"U","MEAN_MOTION":15.13485709,"ECCENTRICITY":0.0001376,"INCLINATION":44.9961,"RA_OF_ASC_NODE":205.9543,"ARG_OF_PERICENTER":350.9145,"MEAN_ANOMALY":9.1707,"EPHEMERIS_TYPE":0,"NORAD_CAT_ID":62389,"ELEMENT_SET_NO":999,"REV_AT_EPOCH":8646,"BSTAR":0.000070923546,"MEAN_MOTION_DOT":0.00001034,"MEAN_MOTION_DDOT":0},{"OBJECT_NAME":"ICEYE-X42","OBJECT_ID":"2025-009CT","EPOCH":"2026-07-16T04:22:28.070112","CLASSIFICATION_TYPE":"U","MEAN_MOTION":14.91855994,"ECCENTRICITY":0.00012829,"INCLINATION":97.739,"RA_OF_ASC_NODE":274.9743,"ARG_OF_PERICENTER":97.5007,"MEAN_ANOMALY":262.6358,"EPHEMERIS_TYPE":0,"NORAD_CAT_ID":62698,"ELEMENT_SET_NO":999,"REV_AT_EPOCH":8161,"BSTAR":0.000094548175,"MEAN_MOTION_DOT":0.00000899,"MEAN_MOTION_DDOT":0},{"OBJECT_NAME":"ICEYE-X41","OBJECT_ID":"2025-009CV","EPOCH":"2026-07-16T05:11:28.281984","CLASSIFICATION_TYPE":"U","MEAN_MOTION":14.96915512,"ECCENTRICITY":0.00002418,"INCLINATION":97.7059,"RA_OF_ASC_NODE":276.3218,"ARG_OF_PERICENTER":262.0461,"MEAN_ANOMALY":98.0733,"EPHEMERIS_TYPE":0,"NORAD_CAT_ID":62700,"ELEMENT_SET_NO":999,"REV_AT_EPOCH":8175,"BSTAR":0.00013491354,"MEAN_MOTION_DOT":0.00001491,"MEAN_MOTION_DDOT":0},{"OBJECT_NAME":"ICEYE-X45","OBJECT_ID":"2025-009DA","EPOCH":"2026-07-16T04:45:05.318208","CLASSIFICATION_TYPE":"U","MEAN_MOTION":15.00841363,"ECCENTRICITY":0.00010757,"INCLINATION":97.8423,"RA_OF_ASC_NODE":284.1255,"ARG_OF_PERICENTER":54.7378,"MEAN_ANOMALY":305.3946,"EPHEMERIS_TYPE":0,"NORAD_CAT_ID":62705,"ELEMENT_SET_NO":999,"REV_AT_EPOCH":8203,"BSTAR":0.00036412194,"MEAN_MOTION_DOT":0.00004568,"MEAN_MOTION_DDOT":0},{"OBJECT_NAME":"ICEYE-X44","OBJECT_ID":"2025-009DC","EPOCH":"2026-07-16T04:17:53.641248","CLASSIFICATION_TYPE":"U","MEAN_MOTION":14.96170749,"ECCENTRICITY":0.00024786,"INCLINATION":97.7059,"RA_OF_ASC_NODE":275.8476,"ARG_OF_PERICENTER":70.0006,"MEAN_ANOMALY":290.1482,"EPHEMERIS_TYPE":0,"NORAD_CAT_ID":62707,"ELEMENT_SET_NO":999,"REV_AT_EPOCH":10427,"BSTAR":0.00015108696,"MEAN_MOTION_DOT":0.00001645,"MEAN_MOTION_DDOT":0},{"OBJECT_NAME":"ICEYE-X48","OBJECT_ID":"2025-052AV","EPOCH":"2026-07-16T04:17:35.390976","CLASSIFICATION_TYPE":"U","MEAN_MOTION":14.98129294,"ECCENTRICITY":0.00040633,"INCLINATION":97.6838,"RA_OF_ASC_NODE":88.9209,"ARG_OF_PERICENTER":101.8187,"MEAN_ANOMALY":258.3491,"EPHEMERIS_TYPE":0,"NORAD_CAT_ID":63253,"ELEMENT_SET_NO":999,"REV_AT_EPOCH":7301,"BSTAR":0.00015690293,"MEAN_MOTION_DOT":0.00001801,"MEAN_MOTION_DDOT":0},{"OBJECT_NAME":"ICEYE-X50","OBJECT_ID":"2025-052AX","EPOCH":"2026-07-16T06:23:50.773632","CLASSIFICATION_TYPE":"U","MEAN_MOTION":14.95366927,"ECCENTRICITY":0.00034508,"INCLINATION":97.6856,"RA_OF_ASC_NODE":88.5995,"ARG_OF_PERICENTER":99.2098,"MEAN_ANOMALY":260.9513,"EPHEMERIS_TYPE":0,"NORAD_CAT_ID":63255,"ELEMENT_SET_NO":999,"REV_AT_EPOCH":7299,"BSTAR":0.00005770067,"MEAN_MOTION_DOT":0.0000058,"MEAN_MOTION_DDOT":0},{"OBJECT_NAME":"ICEYE-X51","OBJECT_ID":"2025-052AZ","EPOCH":"2026-07-16T04:36:45.533952","CLASSIFICATION_TYPE":"U","MEAN_MOTION":15.00873829,"ECCENTRICITY":0.00020444,"INCLINATION":97.7611,"RA_OF_ASC_NODE":92.2365,"ARG_OF_PERICENTER":68.3191,"MEAN_ANOMALY":291.825,"EPHEMERIS_TYPE":0,"NORAD_CAT_ID":63257,"ELEMENT_SET_NO":999,"REV_AT_EPOCH":7315,"BSTAR":0.00017515926,"MEAN_MOTION_DOT":0.00002168,"MEAN_MOTION_DDOT":0},{"OBJECT_NAME":"ICEYE-X46","OBJECT_ID":"2025-052BA","EPOCH":"2026-07-16T04:42:46.324800","CLASSIFICATION_TYPE":"U","MEAN_MOTION":14.95369095,"ECCENTRICITY":0.00016999,"INCLINATION":97.6858,"RA_OF_ASC_NODE":88.5297,"ARG_OF_PERICENTER":81.1807,"MEAN_ANOMALY":278.9607,"EPHEMERIS_TYPE":0,"NORAD_CAT_ID":63258,"ELEMENT_SET_NO":999,"REV_AT_EPOCH":7298,"BSTAR":0.000081313666,"MEAN_MOTION_DOT":0.00000841,"MEAN_MOTION_DDOT":0},{"OBJECT_NAME":"ICEYE-X54","OBJECT_ID":"2025-135AU","EPOCH":"2026-07-16T06:43:37.939008","CLASSIFICATION_TYPE":"U","MEAN_MOTION":14.94735357,"ECCENTRICITY":0.00021213,"INCLINATION":97.7747,"RA_OF_ASC_NODE":311.4259,"ARG_OF_PERICENTER":177.5142,"MEAN_ANOMALY":182.6089,"EPHEMERIS_TYPE":0,"NORAD_CAT_ID":64570,"ELEMENT_SET_NO":999,"REV_AT_EPOCH":5824,"BSTAR":0.00013437206,"MEAN_MOTION_DOT":0.00001402,"MEAN_MOTION_DDOT":0},{"OBJECT_NAME":"ICEYE-X52","OBJECT_ID":"2025-135AW","EPOCH":"2026-07-16T06:41:40.668288","CLASSIFICATION_TYPE":"U","MEAN_MOTION":14.93654779,"ECCENTRICITY":0.00013261,"INCLINATION":97.7769,"RA_OF_ASC_NODE":311.2124,"ARG_OF_PERICENTER":183.7795,"MEAN_ANOMALY":176.3415,"EPHEMERIS_TYPE":0,"NORAD_CAT_ID":64572,"ELEMENT_SET_NO":999,"REV_AT_EPOCH":5822,"BSTAR":0.000092714669,"MEAN_MOTION_DOT":0.00000923,"MEAN_MOTION_DDOT":0},{"OBJECT_NAME":"ICEYE-X56","OBJECT_ID":"2025-135AY","EPOCH":"2026-07-16T06:24:27.439200","CLASSIFICATION_TYPE":"U","MEAN_MOTION":14.9576613,"ECCENTRICITY":0.00014653,"INCLINATION":97.7768,"RA_OF_ASC_NODE":312.0027,"ARG_OF_PERICENTER":185.2151,"MEAN_ANOMALY":174.9055,"EPHEMERIS_TYPE":0,"NORAD_CAT_ID":64574,"ELEMENT_SET_NO":999,"REV_AT_EPOCH":5827,"BSTAR":0.00018101262,"MEAN_MOTION_DOT":0.0000196,"MEAN_MOTION_DDOT":0},{"OBJECT_NAME":"ICEYE-X57","OBJECT_ID":"2025-135BC","EPOCH":"2026-07-16T06:25:57.946656","CLASSIFICATION_TYPE":"U","MEAN_MOTION":15.00866053,"ECCENTRICITY":0.00021246,"INCLINATION":97.8025,"RA_OF_ASC_NODE":313.8271,"ARG_OF_PERICENTER":57.4568,"MEAN_ANOMALY":302.686,"EPHEMERIS_TYPE":0,"NORAD_CAT_ID":64578,"ELEMENT_SET_NO":999,"REV_AT_EPOCH":5838,"BSTAR":0.00019213121,"MEAN_MOTION_DOT":0.00002383,"MEAN_MOTION_DDOT":0},{"OBJECT_NAME":"ICEYE-X55","OBJECT_ID":"2025-135BF","EPOCH":"2026-07-16T06:35:36.609792","CLASSIFICATION_TYPE":"U","MEAN_MOTION":14.95366365,"ECCENTRICITY":0.00019181,"INCLINATION":97.7768,"RA_OF_ASC_NODE":311.8354,"ARG_OF_PERICENTER":228.1797,"MEAN_ANOMALY":131.926,"EPHEMERIS_TYPE":0,"NORAD_CAT_ID":64581,"ELEMENT_SET_NO":999,"REV_AT_EPOCH":5826,"BSTAR":0.00017119714,"MEAN_MOTION_DOT":0.00001831,"MEAN_MOTION_DDOT":0}]}
